{"type": "FeatureCollection", "features": [{"type": "Feature", "properties": {"ma_tinh": "52", "ten_tinh": "Gia Lai", "sap_nhap": "Gia Lai, Bình Định", "quy_mo": "135 đơn vị (25 phường, 110 xã)", "tru_so": "Số 1 Trần Phú, Quy Nhơn, Gia Lai", "loai": "Tỉnh", "cap": 1, "stt": 24, "dtich_km2": 21576.56, "dan_so": 3583691, "matdo_km2": 166.09, "stt_bang": 9, "don_vi_moi": "Gia Lai", "cac_don_vi_sap_nhap": "Gia Lai + Bình Định", "trung_tam_hanh_chinh": "Bình Định", "is_giu_nguyen": false, "center_lat": 13.8892, "center_lng": 108.4408, "name": "Gia Lai", "admin_level": 4, "bbox": [107.45136, 12.99602, 109.363449, 14.703128], "centroid": [108.4408, 13.8892]}, "geometry": {"type": "MultiPolygon", "coordinates": [[[[108.209198, 13.376615], [108.205173, 13.373054], [108.202884, 13.373212], [108.199787, 13.377702], [108.193511, 13.380516], [108.190283, 13.380385], [108.18859, 13.382345], [108.183715, 13.381071], [108.180763, 13.384099], [108.17813, 13.383426], [108.177084, 13.387811], [108.17416, 13.388128], [108.174116, 13.391351], [108.171333, 13.392488], [108.169792, 13.391419], [108.169151, 13.393031], [108.164511, 13.394418], [108.165258, 13.395849], [108.160728, 13.40142], [108.157178, 13.401526], [108.15552, 13.399696], [108.151831, 13.401054], [108.150954, 13.399652], [108.147587, 13.404915], [108.144543, 13.404307], [108.144733, 13.407647], [108.141374, 13.408727], [108.140225, 13.406708], [108.136913, 13.407093], [108.135716, 13.409206], [108.132162, 13.408943], [108.129905, 13.411375], [108.125193, 13.409288], [108.116399, 13.415389], [108.112042, 13.416638], [108.106536, 13.411572], [108.098493, 13.410022], [108.095715, 13.407955], [108.089701, 13.409195], [108.080422, 13.399737], [108.079067, 13.404689], [108.072958, 13.399434], [108.070159, 13.403095], [108.068784, 13.409747], [108.064587, 13.406455], [108.063985, 13.40934], [108.057178, 13.407449], [108.055249, 13.408768], [108.056992, 13.411102], [108.053605, 13.412327], [108.04758, 13.407367], [108.04546, 13.401001], [108.040849, 13.399454], [108.035857, 13.402935], [108.033202, 13.395701], [108.026932, 13.395358], [108.021788, 13.387125], [108.014059, 13.385955], [108.012373, 13.382676], [108.009441, 13.381213], [107.999845, 13.386704], [107.997297, 13.390606], [107.993208, 13.388677], [107.988997, 13.392189], [107.982955, 13.392832], [107.979986, 13.390286], [107.981211, 13.384025], [107.977107, 13.384188], [107.974133, 13.381532], [107.969804, 13.382903], [107.965075, 13.380005], [107.958532, 13.380627], [107.954701, 13.384728], [107.949576, 13.385589], [107.948966, 13.380371], [107.943636, 13.380006], [107.942585, 13.373571], [107.938741, 13.375909], [107.93167, 13.376198], [107.922949, 13.385216], [107.913863, 13.388062], [107.901187, 13.388583], [107.886515, 13.38471], [107.885458, 13.388455], [107.883216, 13.387662], [107.882711, 13.390323], [107.879432, 13.390686], [107.878917, 13.392729], [107.875597, 13.394144], [107.85103, 13.38963], [107.83889, 13.40053], [107.819552, 13.392525], [107.808774, 13.395116], [107.803894, 13.393254], [107.801431, 13.393918], [107.800762, 13.390648], [107.797458, 13.387919], [107.799486, 13.381092], [107.795897, 13.382515], [107.791943, 13.381845], [107.785826, 13.3756], [107.780441, 13.375037], [107.773368, 13.369776], [107.768156, 13.369378], [107.764789, 13.364914], [107.762117, 13.36725], [107.762768, 13.372169], [107.755708, 13.368757], [107.751781, 13.369684], [107.751258, 13.365237], [107.748348, 13.363399], [107.740391, 13.364276], [107.736146, 13.367398], [107.72931, 13.366255], [107.724844, 13.369427], [107.720158, 13.369701], [107.71707, 13.374267], [107.712776, 13.373262], [107.710109, 13.369886], [107.704449, 13.374915], [107.696083, 13.372815], [107.692132, 13.369362], [107.689264, 13.362044], [107.685425, 13.36407], [107.675608, 13.358036], [107.671304, 13.349901], [107.663328, 13.35054], [107.657316, 13.346619], [107.655212, 13.343036], [107.649986, 13.342662], [107.649705, 13.326315], [107.646019, 13.32589], [107.640401, 13.328964], [107.639184, 13.322196], [107.6308, 13.321073], [107.629408, 13.31459], [107.624821, 13.315215], [107.616216, 13.311979], [107.614688, 13.307825], [107.606719, 13.304485], [107.631318, 13.35986], [107.617666, 13.528654], [107.572959, 13.619324], [107.567603, 13.664136], [107.551004, 13.692056], [107.532987, 13.744705], [107.512316, 13.760432], [107.497999, 13.767861], [107.485744, 13.776436], [107.473459, 13.777885], [107.455897, 13.790404], [107.45136, 13.795328], [107.459217, 13.807169], [107.461435, 13.816188], [107.455412, 13.823624], [107.455105, 13.827135], [107.458, 13.832557], [107.466225, 13.83877], [107.466465, 13.841797], [107.471599, 13.848397], [107.473204, 13.854965], [107.471212, 13.858077], [107.467346, 13.858963], [107.456568, 13.866785], [107.454321, 13.870887], [107.457377, 13.878844], [107.470672, 13.891324], [107.470399, 13.904008], [107.471588, 13.906262], [107.469639, 13.909253], [107.472998, 13.915613], [107.473477, 13.92088], [107.457727, 13.922371], [107.461063, 13.925996], [107.462938, 13.931318], [107.468819, 13.93341], [107.470244, 13.935435], [107.469003, 13.952929], [107.477237, 13.959152], [107.488055, 13.961736], [107.498114, 13.969734], [107.502531, 13.971179], [107.511799, 13.983869], [107.525566, 13.982409], [107.526217, 13.986338], [107.522185, 14.00509], [107.522519, 14.009806], [107.524289, 14.011968], [107.530567, 14.013757], [107.542597, 14.012449], [107.544764, 14.014769], [107.54718, 14.022638], [107.552301, 14.025685], [107.558913, 14.025855], [107.574493, 14.019341], [107.586252, 14.022216], [107.599831, 14.029689], [107.601421, 14.045865], [107.604861, 14.049766], [107.611853, 14.053156], [107.613276, 14.062056], [107.614914, 14.063998], [107.61833, 14.062957], [107.625832, 14.055629], [107.632771, 14.053814], [107.635279, 14.054767], [107.642721, 14.063218], [107.650081, 14.066603], [107.650745, 14.075391], [107.657589, 14.084876], [107.648192, 14.098125], [107.649821, 14.101406], [107.65773, 14.103398], [107.66145, 14.131832], [107.665119, 14.137684], [107.659605, 14.149539], [107.659928, 14.158126], [107.658054, 14.165247], [107.662444, 14.17114], [107.67052, 14.176735], [107.677243, 14.187641], [107.678648, 14.191762], [107.678314, 14.200872], [107.683563, 14.206695], [107.687849, 14.221092], [107.690709, 14.220888], [107.699464, 14.215464], [107.707075, 14.216967], [107.713955, 14.213671], [107.72172, 14.215397], [107.729149, 14.214338], [107.739814, 14.208419], [107.760064, 14.201828], [107.763122, 14.203537], [107.76336, 14.21307], [107.770829, 14.214848], [107.77372, 14.218853], [107.778266, 14.215956], [107.784117, 14.225639], [107.786897, 14.224579], [107.788596, 14.221309], [107.79449, 14.221771], [107.799077, 14.219726], [107.806822, 14.21263], [107.817333, 14.213595], [107.820962, 14.21816], [107.820046, 14.221354], [107.821315, 14.224478], [107.823536, 14.224255], [107.826562, 14.227211], [107.828703, 14.233141], [107.835119, 14.231891], [107.837224, 14.234982], [107.840676, 14.255468], [107.838367, 14.262238], [107.839256, 14.267186], [107.844543, 14.271126], [107.850437, 14.27216], [107.852798, 14.275772], [107.860832, 14.273268], [107.867793, 14.277012], [107.87297, 14.275691], [107.876652, 14.28295], [107.878588, 14.274893], [107.880693, 14.273662], [107.887559, 14.271718], [107.891153, 14.274223], [107.894506, 14.273811], [107.904747, 14.264825], [107.904709, 14.262979], [107.915757, 14.261676], [107.917648, 14.258027], [107.920696, 14.257321], [107.926806, 14.249706], [107.931882, 14.240455], [107.943132, 14.239183], [107.946376, 14.242667], [107.949333, 14.242539], [107.955088, 14.230928], [107.961276, 14.227418], [107.970419, 14.23576], [107.977818, 14.239394], [107.977939, 14.241425], [107.982084, 14.244794], [107.999927, 14.244971], [108.008078, 14.239601], [108.015144, 14.240656], [108.016667, 14.249447], [108.020128, 14.248312], [108.024906, 14.252136], [108.025705, 14.254551], [108.024485, 14.2567], [108.031145, 14.265027], [108.030741, 14.266342], [108.033415, 14.267438], [108.034734, 14.274035], [108.040021, 14.277349], [108.043292, 14.276902], [108.045585, 14.273135], [108.049425, 14.273152], [108.055177, 14.266276], [108.060329, 14.26541], [108.058759, 14.268661], [108.062615, 14.272912], [108.062553, 14.275211], [108.06659, 14.277656], [108.065985, 14.28119], [108.068511, 14.283819], [108.06703, 14.28715], [108.072128, 14.294611], [108.070367, 14.298562], [108.07342, 14.300887], [108.072241, 14.303818], [108.073658, 14.306563], [108.081465, 14.310192], [108.080991, 14.313649], [108.084757, 14.313284], [108.088202, 14.315183], [108.088138, 14.32323], [108.079374, 14.328046], [108.078555, 14.332412], [108.082549, 14.334369], [108.100411, 14.335122], [108.104477, 14.337612], [108.104587, 14.343492], [108.112354, 14.345912], [108.108572, 14.353342], [108.114966, 14.363305], [108.1182, 14.363105], [108.127006, 14.356623], [108.13505, 14.355203], [108.139497, 14.356913], [108.139615, 14.36017], [108.149449, 14.36032], [108.148105, 14.355679], [108.146215, 14.356215], [108.142036, 14.353424], [108.147208, 14.347553], [108.148661, 14.348946], [108.154345, 14.349045], [108.154134, 14.350577], [108.1513, 14.351421], [108.151734, 14.353559], [108.15641, 14.353818], [108.160536, 14.362924], [108.163166, 14.362168], [108.163638, 14.364385], [108.166238, 14.364417], [108.169939, 14.368114], [108.176188, 14.366481], [108.182278, 14.369337], [108.183766, 14.368003], [108.189495, 14.368584], [108.192647, 14.373823], [108.199005, 14.373027], [108.198422, 14.376848], [108.203387, 14.374632], [108.202833, 14.376722], [108.204976, 14.377865], [108.204371, 14.380459], [108.208941, 14.386927], [108.213699, 14.387186], [108.221047, 14.39158], [108.229484, 14.39236], [108.232487, 14.38982], [108.239572, 14.392879], [108.243792, 14.396037], [108.244091, 14.39792], [108.251815, 14.390884], [108.26019, 14.390529], [108.264493, 14.38748], [108.270186, 14.388492], [108.274551, 14.386379], [108.280807, 14.389379], [108.289812, 14.389336], [108.296525, 14.391871], [108.296349, 14.39925], [108.291938, 14.404598], [108.291588, 14.407281], [108.298514, 14.419848], [108.300173, 14.421174], [108.302792, 14.420107], [108.307566, 14.42325], [108.312248, 14.432601], [108.316493, 14.434825], [108.323124, 14.442329], [108.322125, 14.444735], [108.324248, 14.454652], [108.326522, 14.458518], [108.328666, 14.458489], [108.331599, 14.461378], [108.331703, 14.467491], [108.335617, 14.471152], [108.338507, 14.477147], [108.343365, 14.481133], [108.348765, 14.492864], [108.353187, 14.494485], [108.356063, 14.491513], [108.3592, 14.494856], [108.363394, 14.494249], [108.365822, 14.500765], [108.372613, 14.507505], [108.376431, 14.510847], [108.381393, 14.51158], [108.383651, 14.525865], [108.376546, 14.530721], [108.373656, 14.530331], [108.369709, 14.532987], [108.371783, 14.535835], [108.371259, 14.538508], [108.374507, 14.540868], [108.374753, 14.547262], [108.367793, 14.558244], [108.359313, 14.563408], [108.35953, 14.566026], [108.357024, 14.570477], [108.356853, 14.578729], [108.358363, 14.58107], [108.366957, 14.584269], [108.369897, 14.593683], [108.371672, 14.594227], [108.371293, 14.596087], [108.375085, 14.59855], [108.37547, 14.600565], [108.384347, 14.597039], [108.387424, 14.598391], [108.388883, 14.601896], [108.393822, 14.600192], [108.395276, 14.600858], [108.394419, 14.603085], [108.397532, 14.603259], [108.399621, 14.59948], [108.403049, 14.598276], [108.403338, 14.595303], [108.405961, 14.592099], [108.409566, 14.592206], [108.41058, 14.587354], [108.413121, 14.58445], [108.412368, 14.579277], [108.413929, 14.576666], [108.4127, 14.575842], [108.414488, 14.574655], [108.415094, 14.571177], [108.416932, 14.571253], [108.419039, 14.568272], [108.42361, 14.567441], [108.425957, 14.560253], [108.436341, 14.558684], [108.441302, 14.554959], [108.445089, 14.55685], [108.452408, 14.556158], [108.458361, 14.551791], [108.462086, 14.553683], [108.470582, 14.549614], [108.482158, 14.550668], [108.484786, 14.547373], [108.493413, 14.544893], [108.495909, 14.542688], [108.504149, 14.546831], [108.507723, 14.544785], [108.511595, 14.546061], [108.512131, 14.551092], [108.517954, 14.550315], [108.522388, 14.552425], [108.524193, 14.556106], [108.528893, 14.556355], [108.528757, 14.558661], [108.530524, 14.56025], [108.52921, 14.562521], [108.530864, 14.566116], [108.531593, 14.577845], [108.535784, 14.582583], [108.540745, 14.584041], [108.542984, 14.587494], [108.547172, 14.589414], [108.550815, 14.585425], [108.560164, 14.586081], [108.566394, 14.579879], [108.572242, 14.577855], [108.57409, 14.572528], [108.594067, 14.565049], [108.596601, 14.562434], [108.594468, 14.559779], [108.595766, 14.556612], [108.59755, 14.556505], [108.596133, 14.546698], [108.604837, 14.535754], [108.608359, 14.53359], [108.611531, 14.534921], [108.613123, 14.532354], [108.61787, 14.53649], [108.617323, 14.541764], [108.61857, 14.543516], [108.621572, 14.542091], [108.628503, 14.545131], [108.627147, 14.54792], [108.629195, 14.551899], [108.63258, 14.552414], [108.641534, 14.547588], [108.643196, 14.550191], [108.642123, 14.554129], [108.644554, 14.55861], [108.640354, 14.564798], [108.645058, 14.568028], [108.653724, 14.570048], [108.659845, 14.576816], [108.674111, 14.581542], [108.677276, 14.584645], [108.675162, 14.590518], [108.680151, 14.596862], [108.687795, 14.591767], [108.698093, 14.596659], [108.699084, 14.60145], [108.702788, 14.606009], [108.700884, 14.612933], [108.701782, 14.613979], [108.705179, 14.614945], [108.70788, 14.613542], [108.705883, 14.609705], [108.708774, 14.605029], [108.716444, 14.601855], [108.718052, 14.598396], [108.723932, 14.595329], [108.725939, 14.596393], [108.73406, 14.589433], [108.738274, 14.588911], [108.740554, 14.590991], [108.74116, 14.595167], [108.748395, 14.591938], [108.757062, 14.59317], [108.759223, 14.59817], [108.763474, 14.599755], [108.760968, 14.615906], [108.761696, 14.620178], [108.765693, 14.622574], [108.76661, 14.62775], [108.764315, 14.637569], [108.765516, 14.642185], [108.763767, 14.646117], [108.764444, 14.651645], [108.759382, 14.666767], [108.763944, 14.6748], [108.767279, 14.674628], [108.768874, 14.677933], [108.772401, 14.67763], [108.781831, 14.670357], [108.786808, 14.670902], [108.788479, 14.669483], [108.798705, 14.668725], [108.801865, 14.670802], [108.807101, 14.669212], [108.809926, 14.671158], [108.813259, 14.67044], [108.822425, 14.676733], [108.825458, 14.675811], [108.827764, 14.677419], [108.835179, 14.691233], [108.83867, 14.694422], [108.842685, 14.692185], [108.846204, 14.68686], [108.846686, 14.681987], [108.851713, 14.683404], [108.850536, 14.685993], [108.852974, 14.691341], [108.860009, 14.692452], [108.863402, 14.695269], [108.870023, 14.690721], [108.873375, 14.690522], [108.874323, 14.687466], [108.887923, 14.683905], [108.889177, 14.682227], [108.892232, 14.686202], [108.904785, 14.686967], [108.906791, 14.691311], [108.91656, 14.694364], [108.921443, 14.698147], [108.924957, 14.697996], [108.928498, 14.703128], [108.929215, 14.697083], [108.931101, 14.697863], [108.939816, 14.695322], [108.942533, 14.689515], [108.944451, 14.688471], [108.945598, 14.689479], [108.94682, 14.687445], [108.949763, 14.688153], [108.949887, 14.685096], [108.954684, 14.683555], [108.954655, 14.680967], [108.958242, 14.683495], [108.959275, 14.68658], [108.960931, 14.685979], [108.973228, 14.676114], [108.973192, 14.672891], [108.978014, 14.670617], [108.994085, 14.674258], [108.996381, 14.670812], [109.001292, 14.668464], [109.00837, 14.670415], [109.014112, 14.666622], [109.017119, 14.666438], [109.017651, 14.660296], [109.020292, 14.657417], [109.023102, 14.657137], [109.024501, 14.652403], [109.027593, 14.650846], [109.026989, 14.647435], [109.03081, 14.646437], [109.031677, 14.648825], [109.034688, 14.648139], [109.038946, 14.64125], [109.035856, 14.641317], [109.039511, 14.639916], [109.043005, 14.635992], [109.045921, 14.62731], [109.045249, 14.625553], [109.042523, 14.624837], [109.042383, 14.623033], [109.046623, 14.617548], [109.044111, 14.611337], [109.045061, 14.609203], [109.048465, 14.608322], [109.048191, 14.603855], [109.054164, 14.602861], [109.059794, 14.591057], [109.061884, 14.591992], [109.066678, 14.59048], [109.071732, 14.583688], [109.079442, 14.580981], [109.082454, 14.577759], [109.078942, 14.578893], [109.075837, 14.576993], [109.070694, 14.578311], [109.070119, 14.577084], [109.077299, 14.574685], [109.071081, 14.576572], [109.06953, 14.575202], [109.067089, 14.569506], [109.067333, 14.563216], [109.073976, 14.541475], [109.089747, 14.508098], [109.089396, 14.505098], [109.120769, 14.451461], [109.122309, 14.445867], [109.124528, 14.445228], [109.122357, 14.437624], [109.118836, 14.436683], [109.119355, 14.429689], [109.116425, 14.428048], [109.115408, 14.423976], [109.121191, 14.406472], [109.127556, 14.39469], [109.125716, 14.390228], [109.122837, 14.388255], [109.124263, 14.384967], [109.120778, 14.380146], [109.122179, 14.374408], [109.134426, 14.349989], [109.152771, 14.321842], [109.182201, 14.282326], [109.185987, 14.281774], [109.184599, 14.278648], [109.179311, 14.276896], [109.178601, 14.272427], [109.189099, 14.253055], [109.194559, 14.248382], [109.19445, 14.24377], [109.198229, 14.234319], [109.193768, 14.226755], [109.190171, 14.229579], [109.187232, 14.22957], [109.182679, 14.225146], [109.181367, 14.21714], [109.183277, 14.205244], [109.195825, 14.177408], [109.210616, 14.152936], [109.221098, 14.138413], [109.223796, 14.137191], [109.227243, 14.139081], [109.227705, 14.13762], [109.225173, 14.133721], [109.225811, 14.131061], [109.220892, 14.126532], [109.20738, 14.124377], [109.205161, 14.115848], [109.206345, 14.106616], [109.220125, 14.07247], [109.240628, 14.036505], [109.248799, 14.023516], [109.25256, 14.022209], [109.251714, 14.019526], [109.253704, 14.017889], [109.250881, 14.011805], [109.246758, 14.009024], [109.251927, 13.99505], [109.255448, 13.99314], [109.25701, 13.989102], [109.254653, 13.984472], [109.2504, 13.9853], [109.249272, 13.979631], [109.254894, 13.965775], [109.25608, 13.964516], [109.259247, 13.965005], [109.259529, 13.963754], [109.253481, 13.959177], [109.249686, 13.959778], [109.250111, 13.957756], [109.246962, 13.958755], [109.243793, 13.956839], [109.242157, 13.953957], [109.243005, 13.944071], [109.253608, 13.920285], [109.267452, 13.899913], [109.276885, 13.890411], [109.285578, 13.886554], [109.290929, 13.888102], [109.290223, 13.891528], [109.293121, 13.894966], [109.294101, 13.893611], [109.292006, 13.890042], [109.292434, 13.88623], [109.296477, 13.885352], [109.297662, 13.880095], [109.298096, 13.876958], [109.294875, 13.878114], [109.291956, 13.872755], [109.295072, 13.855824], [109.292345, 13.852444], [109.293895, 13.847991], [109.295724, 13.847446], [109.299169, 13.841913], [109.295922, 13.835871], [109.297962, 13.833605], [109.298138, 13.829625], [109.2994, 13.830055], [109.299107, 13.8267], [109.295984, 13.821267], [109.293687, 13.821246], [109.289865, 13.817605], [109.285472, 13.804387], [109.286736, 13.797705], [109.289668, 13.794654], [109.289093, 13.79082], [109.291487, 13.788884], [109.290736, 13.787035], [109.294082, 13.780522], [109.292724, 13.778799], [109.294003, 13.771571], [109.292411, 13.77207], [109.291242, 13.770276], [109.293186, 13.767209], [109.289656, 13.764136], [109.288538, 13.760363], [109.289257, 13.754667], [109.286985, 13.754294], [109.282803, 13.761235], [109.280334, 13.762323], [109.274141, 13.761137], [109.267537, 13.757054], [109.254941, 13.758501], [109.250492, 13.76151], [109.251793, 13.762867], [109.250998, 13.767861], [109.242279, 13.77145], [109.23294, 13.768404], [109.225479, 13.763094], [109.218497, 13.755118], [109.214291, 13.745076], [109.217889, 13.739985], [109.219474, 13.733604], [109.21791, 13.714378], [109.221982, 13.711783], [109.221829, 13.707553], [109.226791, 13.690462], [109.229463, 13.687523], [109.231191, 13.688633], [109.232967, 13.687305], [109.231325, 13.685082], [109.233686, 13.681227], [109.233779, 13.670906], [109.227326, 13.677651], [109.218562, 13.681533], [109.212355, 13.679028], [109.207601, 13.681058], [109.203308, 13.693607], [109.199528, 13.695296], [109.190911, 13.693936], [109.182738, 13.683476], [109.177335, 13.6823], [109.16941, 13.683126], [109.167625, 13.678794], [109.162904, 13.676354], [109.156193, 13.678378], [109.15499, 13.674601], [109.157025, 13.668872], [109.154729, 13.66485], [109.153528, 13.657283], [109.151143, 13.655152], [109.154051, 13.646943], [109.152704, 13.633999], [109.149709, 13.632084], [109.146583, 13.63249], [109.14475, 13.630421], [109.140252, 13.635053], [109.135698, 13.636353], [109.126853, 13.643575], [109.122452, 13.644942], [109.119741, 13.641069], [109.11889, 13.634786], [109.121848, 13.633772], [109.126679, 13.62657], [109.127181, 13.623344], [109.126363, 13.62019], [109.118827, 13.618694], [109.115157, 13.614451], [109.115338, 13.608077], [109.118078, 13.603656], [109.115297, 13.600465], [109.113262, 13.593749], [109.113776, 13.59127], [109.118264, 13.587018], [109.117424, 13.584472], [109.11484, 13.584507], [109.11138, 13.587527], [109.100306, 13.58343], [109.099061, 13.578258], [109.096695, 13.577456], [109.095861, 13.574057], [109.092621, 13.571674], [109.088589, 13.572161], [109.084326, 13.567102], [109.053018, 13.569301], [109.050206, 13.561599], [109.04461, 13.559281], [109.040983, 13.547991], [109.034149, 13.545131], [109.031992, 13.534167], [109.025207, 13.529153], [109.019018, 13.530047], [109.017471, 13.525725], [109.012285, 13.527753], [109.007091, 13.522821], [109.004974, 13.523874], [108.998972, 13.522693], [108.988584, 13.528567], [108.987382, 13.526697], [108.983733, 13.527639], [108.981348, 13.525912], [108.978087, 13.528301], [108.974703, 13.528522], [108.97235, 13.525957], [108.944687, 13.527038], [108.944179, 13.529012], [108.94062, 13.52851], [108.936273, 13.532573], [108.933003, 13.533672], [108.932254, 13.531743], [108.93049, 13.5341], [108.924148, 13.53678], [108.921648, 13.540597], [108.913888, 13.541343], [108.911852, 13.540232], [108.907082, 13.542018], [108.907278, 13.540119], [108.903307, 13.538078], [108.894569, 13.541138], [108.891723, 13.536753], [108.867321, 13.534911], [108.866905, 13.54123], [108.861633, 13.544933], [108.859984, 13.544517], [108.858133, 13.547896], [108.855988, 13.558132], [108.852487, 13.561888], [108.851244, 13.568056], [108.849971, 13.568571], [108.848475, 13.566008], [108.844364, 13.564232], [108.837491, 13.564424], [108.834468, 13.566299], [108.827372, 13.564895], [108.821921, 13.572747], [108.818459, 13.570891], [108.814316, 13.576994], [108.785257, 13.577629], [108.78324, 13.575044], [108.784455, 13.573935], [108.780454, 13.571671], [108.780421, 13.568845], [108.774517, 13.570377], [108.768191, 13.561841], [108.757865, 13.562601], [108.748499, 13.566262], [108.74754, 13.554989], [108.739142, 13.55675], [108.739557, 13.551471], [108.735803, 13.548759], [108.732238, 13.539741], [108.734788, 13.53701], [108.733106, 13.528839], [108.727375, 13.523486], [108.727411, 13.519504], [108.714451, 13.518182], [108.712314, 13.509434], [108.71311, 13.501316], [108.708789, 13.499097], [108.708642, 13.493494], [108.702888, 13.486217], [108.707835, 13.482496], [108.710717, 13.476111], [108.715124, 13.474039], [108.714847, 13.47052], [108.713071, 13.468896], [108.713458, 13.463838], [108.726988, 13.463728], [108.735248, 13.457922], [108.743745, 13.457024], [108.747925, 13.458693], [108.752052, 13.463792], [108.757487, 13.459513], [108.760546, 13.464613], [108.763231, 13.463269], [108.769419, 13.464534], [108.772649, 13.466561], [108.777502, 13.466911], [108.778284, 13.468519], [108.779752, 13.466], [108.789551, 13.468423], [108.793, 13.473931], [108.794948, 13.472309], [108.796068, 13.467744], [108.794238, 13.466268], [108.795625, 13.464563], [108.794549, 13.462688], [108.792295, 13.462599], [108.792395, 13.458038], [108.789828, 13.453786], [108.796071, 13.452439], [108.795067, 13.450416], [108.796725, 13.449417], [108.796305, 13.447267], [108.800065, 13.447061], [108.80113, 13.441513], [108.805905, 13.436495], [108.804388, 13.432523], [108.806281, 13.423777], [108.804791, 13.418606], [108.807055, 13.410202], [108.804991, 13.407044], [108.807572, 13.402652], [108.807783, 13.393621], [108.804298, 13.390893], [108.805231, 13.38032], [108.807059, 13.376217], [108.806402, 13.367013], [108.810192, 13.360304], [108.808363, 13.357268], [108.8107, 13.354409], [108.814706, 13.353648], [108.814696, 13.350635], [108.821417, 13.344144], [108.824829, 13.343706], [108.831245, 13.331605], [108.833117, 13.331568], [108.839644, 13.3249], [108.840232, 13.319108], [108.843724, 13.315676], [108.846309, 13.307992], [108.856075, 13.291282], [108.861434, 13.287191], [108.867916, 13.288736], [108.871909, 13.282665], [108.873147, 13.279727], [108.871465, 13.276839], [108.871266, 13.26805], [108.868052, 13.261332], [108.870395, 13.257587], [108.870395, 13.246614], [108.864714, 13.225252], [108.856376, 13.223571], [108.853989, 13.218341], [108.849719, 13.21726], [108.851711, 13.210334], [108.847565, 13.203371], [108.855087, 13.193686], [108.848723, 13.190692], [108.849528, 13.180422], [108.848371, 13.179456], [108.845386, 13.18247], [108.843749, 13.180015], [108.8443, 13.176026], [108.838544, 13.170359], [108.84238, 13.164511], [108.837241, 13.161498], [108.83071, 13.165097], [108.827032, 13.163707], [108.823395, 13.153166], [108.820451, 13.15691], [108.813678, 13.158864], [108.807835, 13.153639], [108.80456, 13.145485], [108.802965, 13.147822], [108.803591, 13.151491], [108.796926, 13.151966], [108.79579, 13.141107], [108.79292, 13.141953], [108.790809, 13.147269], [108.786278, 13.141214], [108.782713, 13.142425], [108.780817, 13.146379], [108.776813, 13.146754], [108.775616, 13.14489], [108.777303, 13.13772], [108.767082, 13.134405], [108.763511, 13.135101], [108.761364, 13.133313], [108.760564, 13.124756], [108.767363, 13.122806], [108.769133, 13.118703], [108.76836, 13.117179], [108.764319, 13.117354], [108.760091, 13.11532], [108.756304, 13.101586], [108.750669, 13.091814], [108.756504, 13.032727], [108.713818, 13.017582], [108.692907, 13.016742], [108.688585, 13.007689], [108.681734, 13.001198], [108.681965, 12.999049], [108.679627, 12.997145], [108.675357, 12.99602], [108.67028, 13.00194], [108.667574, 13.00129], [108.66383, 13.003322], [108.656965, 12.999283], [108.650209, 13.002887], [108.645501, 13.008129], [108.644916, 13.010999], [108.629683, 13.010024], [108.626995, 13.007537], [108.618097, 13.010205], [108.614461, 13.007538], [108.605978, 13.019366], [108.600069, 13.018081], [108.598877, 13.022318], [108.591684, 13.029732], [108.577848, 13.028328], [108.568541, 13.019584], [108.531155, 13.03438], [108.523548, 13.032287], [108.518086, 13.03394], [108.51415, 13.033111], [108.510823, 13.037488], [108.513695, 13.040209], [108.51117, 13.046002], [108.516686, 13.060743], [108.521202, 13.063201], [108.517302, 13.067989], [108.519192, 13.071957], [108.517738, 13.07345], [108.514909, 13.071625], [108.509295, 13.080088], [108.500516, 13.084331], [108.49946, 13.087332], [108.502232, 13.088559], [108.499409, 13.089646], [108.495801, 13.095308], [108.488667, 13.09839], [108.49268, 13.103117], [108.493088, 13.106181], [108.49105, 13.108272], [108.486653, 13.11185], [108.477038, 13.114728], [108.473295, 13.11823], [108.463914, 13.117591], [108.457282, 13.126146], [108.460174, 13.134463], [108.467636, 13.135736], [108.46967, 13.140411], [108.464257, 13.141371], [108.465946, 13.148004], [108.461268, 13.151675], [108.460702, 13.155757], [108.463912, 13.162383], [108.460385, 13.165392], [108.456565, 13.165684], [108.440841, 13.179392], [108.436882, 13.180053], [108.423566, 13.19803], [108.421606, 13.211377], [108.418156, 13.213371], [108.416299, 13.221444], [108.422389, 13.22702], [108.420056, 13.228205], [108.420251, 13.230903], [108.417522, 13.233256], [108.418085, 13.238454], [108.421487, 13.240396], [108.41054, 13.247954], [108.407943, 13.258089], [108.405048, 13.260483], [108.398082, 13.255569], [108.387978, 13.256808], [108.376527, 13.267209], [108.372198, 13.267567], [108.371752, 13.270365], [108.374448, 13.27546], [108.372341, 13.278161], [108.374019, 13.279986], [108.369572, 13.293922], [108.370552, 13.297871], [108.36932, 13.301369], [108.372561, 13.302386], [108.367172, 13.310099], [108.36405, 13.310765], [108.362283, 13.314769], [108.355713, 13.315482], [108.354811, 13.321405], [108.352744, 13.323873], [108.353564, 13.329082], [108.345507, 13.332929], [108.347372, 13.338867], [108.337227, 13.337626], [108.320928, 13.345467], [108.312617, 13.342653], [108.2946, 13.351751], [108.288627, 13.350314], [108.286974, 13.354821], [108.280231, 13.3618], [108.263552, 13.372221], [108.257802, 13.368452], [108.253016, 13.369607], [108.249533, 13.368077], [108.246993, 13.36949], [108.242504, 13.367925], [108.237623, 13.373635], [108.235776, 13.370868], [108.231564, 13.371581], [108.227462, 13.370136], [108.22017, 13.372501], [108.21307, 13.368161], [108.209198, 13.376615]]], [[[109.355751, 13.620377], [109.362061, 13.613076], [109.363449, 13.609375], [109.361641, 13.60472], [109.35570580000007, 13.611893700000053], [109.351646, 13.61027], [109.347626, 13.61166], [109.340714, 13.620338], [109.337578, 13.627079], [109.338867, 13.629799], [109.33799, 13.634337], [109.344719, 13.634381], [109.351761, 13.619503], [109.355751, 13.620377]]], [[[109.23906810000005, 13.669063], [109.240168, 13.668163100000072], [109.24004920000004, 13.667531900000029], [109.23906810000005, 13.669063]]], [[[109.24779910000007, 13.679225], [109.24815990000008, 13.678731300000038], [109.24801460000003, 13.678111100000024], [109.24779910000007, 13.679225]]], [[[109.24735850000008, 13.68006390000005], [109.24709450000006, 13.680251400000031], [109.24711790000003, 13.680320100000074], [109.24735850000008, 13.68006390000005]]], [[[109.25232190000008, 13.684821200000044], [109.255784, 13.679746800000032], [109.255434, 13.678122], [109.25050970000007, 13.680296700000042], [109.25232190000008, 13.684821200000044]]], [[[109.24594070000006, 13.682069200000058], [109.24572040000004, 13.682114500000068], [109.24562670000006, 13.682300400000031], [109.24594070000006, 13.682069200000058]]], [[[109.24064840000005, 13.685871], [109.24121710000009, 13.682196500000032], [109.23817990000003, 13.681777800000077], [109.237805, 13.684408700000063], [109.24064840000005, 13.685871]]], [[[109.24167330000006, 13.69372], [109.24118370000008, 13.693603400000029], [109.24134, 13.693961700000045], [109.24167330000006, 13.69372]]], [[[109.29662140000005, 13.767434300000048], [109.30089080000005, 13.76424570000006], [109.30074090000005, 13.761378900000068], [109.29593480000005, 13.765418400000044], [109.29662140000005, 13.767434300000048]]], [[[109.29575720000008, 13.770791600000052], [109.29684630000008, 13.768952], [109.29612030000004, 13.768047500000023], [109.29575720000008, 13.770791600000052]]], [[[109.290961, 13.789421], [109.291105, 13.79022], [109.291372, 13.789287], [109.290961, 13.789421]]], [[[109.30434040000006, 13.882750700000031], [109.30462450000005, 13.880125500000076], [109.30314090000007, 13.877735100000052], [109.30195180000004, 13.879880300000025], [109.30434040000006, 13.882750700000031]]], [[[109.30406680000004, 13.884004600000026], [109.30597930000005, 13.88283240000004], [109.30566360000006, 13.88190540000005], [109.30406680000004, 13.884004600000026]]], [[[109.293597, 13.894739], [109.293076, 13.896108], [109.293143, 13.896136], [109.293597, 13.894739]]], [[[109.293519, 13.895825], [109.293628, 13.896609], [109.293898, 13.896453], [109.293519, 13.895825]]], [[[109.34759480000008, 13.898221200000023], [109.34933050000006, 13.89654390000004], [109.34856870000004, 13.895834900000068], [109.34759480000008, 13.898221200000023]]], [[[109.35042220000008, 13.899113200000045], [109.35106620000005, 13.898366], [109.349786, 13.898907300000076], [109.35042220000008, 13.899113200000045]]], [[[109.35185160000009, 13.900653200000022], [109.35205580000007, 13.898914900000022], [109.35184370000007, 13.899608700000044], [109.35185160000009, 13.900653200000022]]], [[[109.317615, 13.904182], [109.31873030000008, 13.900852200000031], [109.31731510000009, 13.89995840000006], [109.317615, 13.904182]]], [[[109.296391, 14.138897400000076], [109.29984760000008, 14.137917800000025], [109.29325010000008, 14.136632200000065], [109.29190850000003, 14.137780100000043], [109.296391, 14.138897400000076]]], [[[109.19942130000004, 14.232814500000075], [109.20213610000008, 14.232217800000058], [109.20124430000004, 14.231257800000037], [109.19942130000004, 14.232814500000075]]], [[[109.20959770000007, 14.247135800000024], [109.20973190000007, 14.245743600000026], [109.20902160000009, 14.246990400000072], [109.20959770000007, 14.247135800000024]]], [[[109.21025270000007, 14.250600700000064], [109.20774310000007, 14.25005], [109.20753010000004, 14.251587500000028], [109.20968450000004, 14.252864800000054], [109.21025270000007, 14.250600700000064]]], [[[109.197101, 14.361135], [109.19619, 14.361207], [109.196188, 14.361799], [109.197101, 14.361135]]]]}}]}